{
  "links" : {
    "next" : "https://api.nasa.gov/neo/rest/v1/feed?start_date=2015-09-16&end_date=2015-09-16&detailed=true&api_key=t0TVs3DtDT2H8Oy2Zy8m2eVrNsAVKAexjcZXUckd",
    "prev" : "https://api.nasa.gov/neo/rest/v1/feed?start_date=2015-09-14&end_date=2015-09-14&detailed=true&api_key=t0TVs3DtDT2H8Oy2Zy8m2eVrNsAVKAexjcZXUckd",
    "self" : "https://api.nasa.gov/neo/rest/v1/feed?start_date=2015-09-15&end_date=2015-09-15&detailed=true&api_key=t0TVs3DtDT2H8Oy2Zy8m2eVrNsAVKAexjcZXUckd"
  },
  "element_count" : 11,
  "near_earth_objects" : {
    "2015-09-15" : [ {
      "links" : {
        "self" : "https://api.nasa.gov/neo/rest/v1/neo/2260277?api_key=t0TVs3DtDT2H8Oy2Zy8m2eVrNsAVKAexjcZXUckd"
      },
      "neo_reference_id" : "2260277",
      "name" : "260277 (2004 TR12)",
      "nasa_jpl_url" : "http://ssd.jpl.nasa.gov/sbdb.cgi?sstr=2260277",
      "absolute_magnitude_h" : 18.2,
      "estimated_diameter" : {
        "kilometers" : {
          "estimated_diameter_min" : 0.6089126221,
          "estimated_diameter_max" : 1.3615700154
        },
        "meters" : {
          "estimated_diameter_min" : 608.9126221057,
          "estimated_diameter_max" : 1361.5700153859
        },
        "miles" : {
          "estimated_diameter_min" : 0.3783606449,
          "estimated_diameter_max" : 0.846040122
        },
        "feet" : {
          "estimated_diameter_min" : 1997.7448871092,
          "estimated_diameter_max" : 4467.0933692788
        }
      },
      "is_potentially_hazardous_asteroid" : false,
      "close_approach_data" : [ {
        "close_approach_date" : "2015-09-15",
        "epoch_date_close_approach" : 1442300400000,
        "relative_velocity" : {
          "kilometers_per_second" : "14.0731494319",
          "kilometers_per_hour" : "50663.3379549098",
          "miles_per_hour" : "31480.2279642605"
        },
        "miss_distance" : {
          "astronomical" : "0.1512145708",
          "lunar" : "58.822467804",
          "kilometers" : "22621378",
          "miles" : "14056273"
        },
        "orbiting_body" : "Earth"
      } ],
      "orbital_data" : {
        "orbit_id" : "38",
        "orbit_determination_date" : "2017-04-06 09:24:42",
        "orbit_uncertainty" : "0",
        "minimum_orbit_intersection" : ".0957484",
        "jupiter_tisserand_invariant" : "6.578",
        "epoch_osculation" : "2458000.5",
        "eccentricity" : ".2096714891220505",
        "semi_major_axis" : ".8952158645135092",
        "inclination" : "19.35522296839034",
        "ascending_node_longitude" : "155.3906465218348",
        "orbital_period" : "309.3784659894206",
        "perihelion_distance" : ".7075146211152779",
        "perihelion_argument" : "77.76243855666826",
        "aphelion_distance" : "1.082917107911741",
        "perihelion_time" : "2458132.577617642146",
        "mean_anomaly" : "206.3114030929404",
        "mean_motion" : "1.163623327333682",
        "equinox" : "J2000"
      }
    }, {
      "links" : {
        "self" : "https://api.nasa.gov/neo/rest/v1/neo/2337118?api_key=t0TVs3DtDT2H8Oy2Zy8m2eVrNsAVKAexjcZXUckd"
      },
      "neo_reference_id" : "2337118",
      "name" : "337118 (1999 TX2)",
      "nasa_jpl_url" : "http://ssd.jpl.nasa.gov/sbdb.cgi?sstr=2337118",
      "absolute_magnitude_h" : 18.3,
      "estimated_diameter" : {
        "kilometers" : {
          "estimated_diameter_min" : 0.5815070396,
          "estimated_diameter_max" : 1.30028927
        },
        "meters" : {
          "estimated_diameter_min" : 581.5070396458,
          "estimated_diameter_max" : 1300.2892700427
        },
        "miles" : {
          "estimated_diameter_min" : 0.3613316107,
          "estimated_diameter_max" : 0.807962044
        },
        "feet" : {
          "estimated_diameter_min" : 1907.8315559515,
          "estimated_diameter_max" : 4266.0410487267
        }
      },
      "is_potentially_hazardous_asteroid" : false,
      "close_approach_data" : [ {
        "close_approach_date" : "2015-09-15",
        "epoch_date_close_approach" : 1442300400000,
        "relative_velocity" : {
          "kilometers_per_second" : "28.0637271556",
          "kilometers_per_hour" : "101029.4177603004",
          "miles_per_hour" : "62775.7512744489"
        },
        "miss_distance" : {
          "astronomical" : "0.3927341007",
          "lunar" : "152.7735748291",
          "kilometers" : "58752188",
          "miles" : "36506916"
        },
        "orbiting_body" : "Earth"
      } ],
      "orbital_data" : {
        "orbit_id" : "51",
        "orbit_determination_date" : "2017-04-06 09:23:23",
        "orbit_uncertainty" : "0",
        "minimum_orbit_intersection" : ".196355",
        "jupiter_tisserand_invariant" : "4.484",
        "epoch_osculation" : "2458000.5",
        "eccentricity" : ".4635614831057528",
        "semi_major_axis" : "1.280798244589416",
        "inclination" : "61.38511319899008",
        "ascending_node_longitude" : "179.9577266322867",
        "orbital_period" : "529.4433678206886",
        "perihelion_distance" : ".6870695107683017",
        "perihelion_argument" : "53.54939378110594",
        "aphelion_distance" : "1.874526978410531",
        "perihelion_time" : "2458233.519272683953",
        "mean_anomaly" : "201.5563528323696",
        "mean_motion" : ".679959409977772",
        "equinox" : "J2000"
      }
    }, {
      "links" : {
        "self" : "https://api.nasa.gov/neo/rest/v1/neo/2441825?api_key=t0TVs3DtDT2H8Oy2Zy8m2eVrNsAVKAexjcZXUckd"
      },
      "neo_reference_id" : "2441825",
      "name" : "441825 (2009 SK1)",
      "nasa_jpl_url" : "http://ssd.jpl.nasa.gov/sbdb.cgi?sstr=2441825",
      "absolute_magnitude_h" : 18.5,
      "estimated_diameter" : {
        "kilometers" : {
          "estimated_diameter_min" : 0.5303407233,
          "estimated_diameter_max" : 1.1858779086
        },
        "meters" : {
          "estimated_diameter_min" : 530.3407233187,
          "estimated_diameter_max" : 1185.8779085771
        },
        "miles" : {
          "estimated_diameter_min" : 0.3295383456,
          "estimated_diameter_max" : 0.7368701419
        },
        "feet" : {
          "estimated_diameter_min" : 1739.963058693,
          "estimated_diameter_max" : 3890.675677576
        }
      },
      "is_potentially_hazardous_asteroid" : false,
      "close_approach_data" : [ {
        "close_approach_date" : "2015-09-15",
        "epoch_date_close_approach" : 1442300400000,
        "relative_velocity" : {
          "kilometers_per_second" : "15.4522082397",
          "kilometers_per_hour" : "55627.9496630496",
          "miles_per_hour" : "34565.0446114655"
        },
        "miss_distance" : {
          "astronomical" : "0.4114266917",
          "lunar" : "160.0449829102",
          "kilometers" : "61548556",
          "miles" : "38244500"
        },
        "orbiting_body" : "Earth"
      } ],
      "orbital_data" : {
        "orbit_id" : "98",
        "orbit_determination_date" : "2017-09-28 06:49:30",
        "orbit_uncertainty" : "0",
        "minimum_orbit_intersection" : ".405597",
        "jupiter_tisserand_invariant" : "4.162",
        "epoch_osculation" : "2458000.5",
        "eccentricity" : ".2226510107461644",
        "semi_major_axis" : "1.611020640116447",
        "inclination" : "30.81836224441361",
        "ascending_node_longitude" : "184.4007412996978",
        "orbital_period" : "746.8787165155734",
        "perihelion_distance" : "1.252325266261587",
        "perihelion_argument" : "104.4488485589554",
        "aphelion_distance" : "1.969716013971306",
        "perihelion_time" : "2457938.614999867449",
        "mean_anomaly" : "29.82893949857766",
        "mean_motion" : ".4820059696968129",
        "equinox" : "J2000"
      }
    } ]
  }
}